0 COSMOS 203
1 03129U 68011A   13281.96778319 -.00000398  00000-0 -96846-3 0  3370
2 03129 074.0531 215.2778 0013225 270.2738 157.3076 13.18178594195765
0 COSMOS 203
1 03129U 68011A   13284.10492265 -.00000046  00000-0 -68373-4 0  3388
2 03129 074.0533 212.0680 0013212 266.9036 218.7142 13.18174177196044
0 COSMOS 203
1 03129U 68011A   13286.14918985  .00000350  00000-0  94196-3 0  3394
2 03129 074.0535 208.9977 0013193 263.5967 199.4754 13.18171072196318
0 COSMOS 203
1 03129U 68011A   13288.19912168  .00000337  00000-0  91056-3 0  3407
2 03129 074.0535 205.9190 0013200 260.2292 207.1362 13.18172502196586
0 COSMOS 203
1 03129U 68011A   13290.46350580 -.00000111  00000-0 -23439-3 0  3417
2 03129 074.0532 202.5185 0013145 256.4752 152.4772 13.18177364196887
0 COSMOS 203
1 03129U 68011A   13292.81227056 -.00000389  00000-0 -94338-3 0  3423
2 03129 074.0527 198.9912 0013109 252.7221 138.1315 13.18179439197191
0 COSMOS 203
1 03129U 68011A   13294.86922583 -.00000179  00000-0 -40853-3 0  3438
2 03129 074.0525 195.9020 0013114 249.5006 179.0174 13.18176200197467
